FENGYUN 1C DEB          
1 32418U 99025DAE 17345.76219750  .00000633  00000-0  49381-3 0  9990
2 32418  98.1967 175.6023 0284460 176.5734 183.7459 13.77853942225534
